[{"OBJECT_NAME":"STARLINK-35157","OBJECT_ID":"2025-218Z","EPOCH":"2026-03-09T14:44:34.046880","MEAN_MOTION":15.05653285,"ECCENTRICITY":0.0002182,"INCLINATION":97.6029,"RA_OF_ASC_NODE":292.9618,"ARG_OF_PERICENTER":37.5996,"MEAN_ANOMALY":322.5383,"EPHEMERIS_TYPE":0,"CLASSIFICATION_TYPE":"U","NORAD_CAT_ID":65814,"ELEMENT_SET_NO":999,"REV_AT_EPOCH":2496,"BSTAR":-0.001014,"MEAN_MOTION_DOT":-0.00014664,"MEAN_MOTION_DDOT":0},{"OBJECT_NAME":"OBJECT Z","OBJECT_ID":"2017-042Z","EPOCH":"2026-03-09T21:17:53.130336","MEAN_MOTION":15.06776019,"ECCENTRICITY":0.00062541,"INCLINATION":97.3821,"RA_OF_ASC_NODE":235.9429,"ARG_OF_PERICENTER":50.1524,"MEAN_ANOMALY":310.0253,"EPHEMERIS_TYPE":0,"CLASSIFICATION_TYPE":"U","NORAD_CAT_ID":42848,"ELEMENT_SET_NO":999,"REV_AT_EPOCH":47228,"BSTAR":0.00039314781,"MEAN_MOTION_DOT":5.795e-5,"MEAN_MOTION_DDOT":0}]
